[
    {
        "Altitude(m)": 604234.6056573887,
        "Argument of Periapsis(deg)": 0.0,
        "Eccentricity": 0.0,
        "Inclination(deg)": 60.0,
        "Latitude(deg)": 14.117215392188472,
        "Longitude(deg)": -168.27264420512182,
        "Mean Anomaly(deg)": 163.63639999999998,
        "RAAN(deg)": 120.0,
        "Satellite Name": "Test1 538",
        "Satellite Number": 538,
        "Semi-Major Axis(m)": 6980739.136638005,
        "Time(s)": 0
    },
    {
        "Altitude(m)": 604223.4342542238,
        "Argument of Periapsis(deg)": 0.00010418945913296404,
        "Eccentricity": 0.0,
        "Inclination(deg)": 60.0,
        "Latitude(deg)": 13.582351186726395,
        "Longitude(deg)": -167.9857361743954,
        "Mean Anomaly(deg)": 164.25650614546183,
        "RAAN(deg)": 119.99957995086024,
        "Satellite Name": "Test1 538",
        "Satellite Number": 538,
        "Semi-Major Axis(m)": 6980739.136638005,
        "Time(s)": 10
    }
]